LEMUR-2-JPGSQUARED
1 44855U 19089D   24002.92568819  .00036703  00000-0  14631-2 0  9995
2 44855  36.9642 302.3138 0008691 240.2032 119.7853 15.24288007223418
